start=new Date('2022-07-08T00:00:00.000Z').valueOf();
sats=[{"OBJECT_NAME":"STARLINK-1169","PERIOD":"95.592","ARG_OF_PERICENTER":"70.4453","NORAD_CAT_ID":"45061","COUNTRY_CODE":"US","TIME_SYSTEM":"UTC","MEAN_MOTION_DDOT":"0.0000000000000","FILE":"3509470","TLE_LINE2":"2 45061  53.0526 186.5754 0001760  70.4453 289.6725 15.06404308134347","DECAY_DATE":null,"RCS_SIZE":"LARGE","SEMIMAJOR_AXIS":"6925.335","EPOCH":"2022-07-07T16:41:51.539424","CENTER_NAME":"EARTH","MEAN_ANOMALY":"289.6725","INCLINATION":"53.0526","MEAN_MOTION":"15.06404308","OBJECT_TYPE":"PAYLOAD","REF_FRAME":"TEME","MEAN_ELEMENT_THEORY":"SGP4","APOAPSIS":"548.419","MEAN_MOTION_DOT":"0.00000836","GP_ID":"207626609","OBJECT_ID":"2020-006T","SITE":"AFETR","EPHEMERIS_TYPE":"0","ECCENTRICITY":"0.00017600","TLE_LINE1":"1 45061U 20006T   22188.69573541  .00000836  00000-0  74994-4 0  9999","BSTAR":"0.00007499400000","LAUNCH_DATE":"2020-01-29","REV_AT_EPOCH":"13434","ELEMENT_SET_NO":"999","CLASSIFICATION_TYPE":"U","PERIAPSIS":"545.981","RA_OF_ASC_NODE":"186.5754"},{"RCS_SIZE":"LARGE","SEMIMAJOR_AXIS":"6925.341","CENTER_NAME":"EARTH","MEAN_ANOMALY":"292.4748","EPOCH":"2022-07-07T11:34:00.440256","DECAY_DATE":null,"OBJECT_TYPE":"PAYLOAD","INCLINATION":"53.0540","MEAN_MOTION":"15.06402314","NORAD_CAT_ID":"45062","COUNTRY_CODE":"US","OBJECT_NAME":"STARLINK-1171","ARG_OF_PERICENTER":"67.6408","PERIOD":"95.592","TLE_LINE2":"2 45062  53.0540 187.5339 0001578  67.6408 292.4748 15.06402314134318","TIME_SYSTEM":"UTC","MEAN_MOTION_DDOT":"0.0000000000000","FILE":"3509293","LAUNCH_DATE":"2020-01-29","REV_AT_EPOCH":"13431","ELEMENT_SET_NO":"999","TLE_LINE1":"1 45062U 20006U   22188.48194954  .00000739  00000-0  68483-4 0  9992","ECCENTRICITY":"0.00015780","BSTAR":"0.00006848300000","RA_OF_ASC_NODE":"187.5339","CLASSIFICATION_TYPE":"U","PERIAPSIS":"546.114","MEAN_ELEMENT_THEORY":"SGP4","REF_FRAME":"TEME","SITE":"AFETR","EPHEMERIS_TYPE":"0","APOAPSIS":"548.299","MEAN_MOTION_DOT":"0.00000739","GP_ID":"207597902","OBJECT_ID":"2020-006U"},{"OBJECT_ID":"2020-006W","GP_ID":"207627605","MEAN_MOTION_DOT":"-0.00000099","APOAPSIS":"548.346","EPHEMERIS_TYPE":"0","SITE":"AFETR","REF_FRAME":"TEME","MEAN_ELEMENT_THEORY":"SGP4","PERIAPSIS":"546.061","CLASSIFICATION_TYPE":"U","RA_OF_ASC_NODE":"166.2947","BSTAR":"0.00001225700000","ECCENTRICITY":"0.00016500","TLE_LINE1":"1 45064U 20006W   22188.76023876 -.00000099  00000-0  12257-4 0  9997","REV_AT_EPOCH":"13497","ELEMENT_SET_NO":"999","LAUNCH_DATE":"2020-01-29","FILE":"3509470","MEAN_MOTION_DDOT":"0.0000000000000","TIME_SYSTEM":"UTC","TLE_LINE2":"2 45064  53.0539 166.2947 0001650  68.0128 292.1036 15.06403248134978","ARG_OF_PERICENTER":"68.0128","PERIOD":"95.592","OBJECT_NAME":"STARLINK-1133","COUNTRY_CODE":"US","NORAD_CAT_ID":"45064","MEAN_MOTION":"15.06403248","INCLINATION":"53.0539","OBJECT_TYPE":"PAYLOAD","DECAY_DATE":null,"MEAN_ANOMALY":"292.1036","CENTER_NAME":"EARTH","EPOCH":"2022-07-07T18:14:44.628864","SEMIMAJOR_AXIS":"6925.339","RCS_SIZE":"LARGE"},{"PERIAPSIS":"546.014","CLASSIFICATION_TYPE":"U","RA_OF_ASC_NODE":"166.8705","BSTAR":"0.00009120000000","ECCENTRICITY":"0.00017470","TLE_LINE1":"1 45065U 20006X   22188.63122924  .00001077  00000-0  91200-4 0  9999","REV_AT_EPOCH":"13461","ELEMENT_SET_NO":"999","LAUNCH_DATE":"2020-01-29","OBJECT_ID":"2020-006X","APOAPSIS":"548.433","MEAN_MOTION_DOT":"0.00001077","GP_ID":"207628333","EPHEMERIS_TYPE":"0","SITE":"AFETR","REF_FRAME":"TEME","MEAN_ELEMENT_THEORY":"SGP4","INCLINATION":"53.0541","MEAN_MOTION":"15.06396738","OBJECT_TYPE":"PAYLOAD","DECAY_DATE":null,"SEMIMAJOR_AXIS":"6925.359","EPOCH":"2022-07-07T15:08:58.206336","MEAN_ANOMALY":"287.4980","CENTER_NAME":"EARTH","RCS_SIZE":"LARGE","MEAN_MOTION_DDOT":"0.0000000000000","FILE":"3509470","TIME_SYSTEM":"UTC","TLE_LINE2":"2 45065  53.0541 166.8705 0001747  72.6200 287.4980 15.06396738134610","ARG_OF_PERICENTER":"72.6200","PERIOD":"95.592","OBJECT_NAME":"STARLINK-1139","COUNTRY_CODE":"US","NORAD_CAT_ID":"45065"},{"NORAD_CAT_ID":"45066","COUNTRY_CODE":"US","OBJECT_NAME":"STARLINK-1145","ARG_OF_PERICENTER":"64.7558","PERIOD":"95.592","TLE_LINE2":"2 45066  53.0528 166.6774 0001947  64.7558 295.3633 15.06395825134619","TIME_SYSTEM":"UTC","FILE":"3509470","MEAN_MOTION_DDOT":"0.0000000000000","RCS_SIZE":"LARGE","EPOCH":"2022-07-07T16:07:21.619200","CENTER_NAME":"EARTH","MEAN_ANOMALY":"295.3633","SEMIMAJOR_AXIS":"6925.361","DECAY_DATE":null,"OBJECT_TYPE":"PAYLOAD","MEAN_MOTION":"15.06395825","INCLINATION":"53.0528","MEAN_ELEMENT_THEORY":"SGP4","REF_FRAME":"TEME","SITE":"AFETR","EPHEMERIS_TYPE":"0","MEAN_MOTION_DOT":"0.00001024","GP_ID":"207627110","APOAPSIS":"548.575","OBJECT_ID":"2020-006Y","LAUNCH_DATE":"2020-01-29","REV_AT_EPOCH":"13461","ELEMENT_SET_NO":"999","TLE_LINE1":"1 45066U 20006Y   22188.67177800  .00001024  00000-0  87682-4 0  9998","ECCENTRICITY":"0.00019470","BSTAR":"0.00008768200000","RA_OF_ASC_NODE":"166.6774","CLASSIFICATION_TYPE":"U","PERIAPSIS":"545.878"},{"PERIOD":"95.592","ARG_OF_PERICENTER":"69.7538","OBJECT_NAME":"STARLINK-1150","COUNTRY_CODE":"US","NORAD_CAT_ID":"45067","FILE":"3509293","MEAN_MOTION_DDOT":"0.0000000000000","TIME_SYSTEM":"UTC","TLE_LINE2":"2 45067  53.0559 168.4041 0001681  69.7538 290.3632 15.06398670134568","DECAY_DATE":null,"MEAN_ANOMALY":"290.3632","CENTER_NAME":"EARTH","EPOCH":"2022-07-07T06:55:20.270784","SEMIMAJOR_AXIS":"6925.353","RCS_SIZE":"LARGE","MEAN_MOTION":"15.06398670","INCLINATION":"53.0559","OBJECT_TYPE":"PAYLOAD","REF_FRAME":"TEME","MEAN_ELEMENT_THEORY":"SGP4","OBJECT_ID":"2020-006Z","GP_ID":"207597402","MEAN_MOTION_DOT":"0.00000985","APOAPSIS":"548.382","EPHEMERIS_TYPE":"0","SITE":"AFETR","BSTAR":"0.00008500500000","ECCENTRICITY":"0.00016810","TLE_LINE1":"1 45067U 20006Z   22188.28842906  .00000985  00000-0  85005-4 0  9994","ELEMENT_SET_NO":"999","REV_AT_EPOCH":"13456","LAUNCH_DATE":"2020-01-29","PERIAPSIS":"546.053","CLASSIFICATION_TYPE":"U","RA_OF_ASC_NODE":"168.4041"},{"APOAPSIS":"548.257","GP_ID":"207628106","MEAN_MOTION_DOT":"0.00000404","OBJECT_ID":"2020-006AA","SITE":"AFETR","EPHEMERIS_TYPE":"0","REF_FRAME":"TEME","MEAN_ELEMENT_THEORY":"SGP4","CLASSIFICATION_TYPE":"U","PERIAPSIS":"546.225","RA_OF_ASC_NODE":"166.6123","TLE_LINE1":"1 45068U 20006AA  22188.65975879  .00000404  00000-0  45999-4 0  9996","ECCENTRICITY":"0.00014670","BSTAR":"0.00004599900000","LAUNCH_DATE":"2020-01-29","REV_AT_EPOCH":"13461","ELEMENT_SET_NO":"999","TIME_SYSTEM":"UTC","MEAN_MOTION_DDOT":"0.0000000000000","FILE":"3509470","TLE_LINE2":"2 45068  53.0564 166.6123 0001467  75.8837 284.2315 15.06390970134619","OBJECT_NAME":"STARLINK-1161","PERIOD":"95.593","ARG_OF_PERICENTER":"75.8837","NORAD_CAT_ID":"45068","COUNTRY_CODE":"US","INCLINATION":"53.0564","MEAN_MOTION":"15.06390970","OBJECT_TYPE":"PAYLOAD","DECAY_DATE":null,"RCS_SIZE":"LARGE","SEMIMAJOR_AXIS":"6925.376","CENTER_NAME":"EARTH","EPOCH":"2022-07-07T15:50:03.159456","MEAN_ANOMALY":"284.2315"},{"OBJECT_NAME":"STARLINK-1167","ARG_OF_PERICENTER":"62.3213","PERIOD":"95.592","NORAD_CAT_ID":"45071","COUNTRY_CODE":"US","TIME_SYSTEM":"UTC","MEAN_MOTION_DDOT":"0.0000000000000","FILE":"3509470","TLE_LINE2":"2 45071  53.0529 165.8783 0001747  62.3213 297.7953 15.06403282134648","DECAY_DATE":null,"RCS_SIZE":"LARGE","SEMIMAJOR_AXIS":"6925.338","MEAN_ANOMALY":"297.7953","CENTER_NAME":"EARTH","EPOCH":"2022-07-07T20:27:25.079040","INCLINATION":"53.0529","MEAN_MOTION":"15.06403282","OBJECT_TYPE":"PAYLOAD","REF_FRAME":"TEME","MEAN_ELEMENT_THEORY":"SGP4","APOAPSIS":"548.413","MEAN_MOTION_DOT":"0.00001360","GP_ID":"207627833","OBJECT_ID":"2020-006AD","SITE":"AFETR","EPHEMERIS_TYPE":"0","ECCENTRICITY":"0.00017470","TLE_LINE1":"1 45071U 20006AD  22188.85237360  .00001360  00000-0  11015-3 0  9991","BSTAR":"0.00011015000000","LAUNCH_DATE":"2020-01-29","REV_AT_EPOCH":"13464","ELEMENT_SET_NO":"999","CLASSIFICATION_TYPE":"U","PERIAPSIS":"545.994","RA_OF_ASC_NODE":"165.8783"},{"COUNTRY_CODE":"US","NORAD_CAT_ID":"45072","PERIOD":"95.591","ARG_OF_PERICENTER":"67.0790","OBJECT_NAME":"STARLINK-1168","TLE_LINE2":"2 45072  53.0552 166.7568 0002085  67.0790 293.0419 15.06413436134619","FILE":"3509470","MEAN_MOTION_DDOT":"0.0000000000000","TIME_SYSTEM":"UTC","EPOCH":"2022-07-07T15:46:07.315968","MEAN_ANOMALY":"293.0419","CENTER_NAME":"EARTH","SEMIMAJOR_AXIS":"6925.307","RCS_SIZE":"LARGE","DECAY_DATE":null,"OBJECT_TYPE":"PAYLOAD","MEAN_MOTION":"15.06413436","INCLINATION":"53.0552","MEAN_ELEMENT_THEORY":"SGP4","REF_FRAME":"TEME","EPHEMERIS_TYPE":"0","SITE":"AFETR","OBJECT_ID":"2020-006AE","MEAN_MOTION_DOT":"0.00001487","GP_ID":"207626610","APOAPSIS":"548.616","ELEMENT_SET_NO":"999","REV_AT_EPOCH":"13461","LAUNCH_DATE":"2020-01-29","BSTAR":"0.00011868000000","TLE_LINE1":"1 45072U 20006AE  22188.65702912  .00001487  00000-0  11868-3 0  9996","ECCENTRICITY":"0.00020850","RA_OF_ASC_NODE":"166.7568","PERIAPSIS":"545.728","CLASSIFICATION_TYPE":"U"},{"NORAD_CAT_ID":"45073","COUNTRY_CODE":"US","OBJECT_NAME":"STARLINK-1170","ARG_OF_PERICENTER":"57.0000","PERIOD":"95.592","TLE_LINE2":"2 45073  53.0540 166.0277 0002605  57.0000 303.1239 15.06402819134973","TIME_SYSTEM":"UTC","FILE":"3509470","MEAN_MOTION_DDOT":"0.0000000000000","RCS_SIZE":"LARGE","MEAN_ANOMALY":"303.1239","EPOCH":"2022-07-07T19:34:21.068832","CENTER_NAME":"EARTH","SEMIMAJOR_AXIS":"6925.340","DECAY_DATE":null,"OBJECT_TYPE":"PAYLOAD","MEAN_MOTION":"15.06402819","INCLINATION":"53.0540","MEAN_ELEMENT_THEORY":"SGP4","REF_FRAME":"TEME","SITE":"AFETR","EPHEMERIS_TYPE":"0","GP_ID":"207626860","MEAN_MOTION_DOT":"-0.00000196","APOAPSIS":"549.009","OBJECT_ID":"2020-006AF","LAUNCH_DATE":"2020-01-29","REV_AT_EPOCH":"13497","ELEMENT_SET_NO":"999","ECCENTRICITY":"0.00026050","TLE_LINE1":"1 45073U 20006AF  22188.81552163 -.00000196  00000-0  57524-5 0  9994","BSTAR":"0.00000575240000","RA_OF_ASC_NODE":"166.0277","CLASSIFICATION_TYPE":"U","PERIAPSIS":"545.401"}];
